[{"OBJECT_NAME":"LEMUR-2-PETERG","OBJECT_ID":"2017-042S","EPOCH":"2026-03-09T11:34:35.656032","MEAN_MOTION":15.29611459,"ECCENTRICITY":0.00037,"INCLINATION":97.398,"RA_OF_ASC_NODE":253.6596,"ARG_OF_PERICENTER":341.6938,"MEAN_ANOMALY":18.4169,"EPHEMERIS_TYPE":0,"CLASSIFICATION_TYPE":"U","NORAD_CAT_ID":42841,"ELEMENT_SET_NO":999,"REV_AT_EPOCH":47317,"BSTAR":0.00081076471,"MEAN_MOTION_DOT":0.0002324,"MEAN_MOTION_DDOT":0},{"OBJECT_NAME":"STARLINK-30784","OBJECT_ID":"2023-166G","EPOCH":"2026-03-09T16:23:16.247616","MEAN_MOTION":15.30178394,"ECCENTRICITY":8.988e-5,"INCLINATION":53.1607,"RA_OF_ASC_NODE":219.9577,"ARG_OF_PERICENTER":89.6522,"MEAN_ANOMALY":270.4582,"EPHEMERIS_TYPE":0,"CLASSIFICATION_TYPE":"U","NORAD_CAT_ID":58156,"ELEMENT_SET_NO":999,"REV_AT_EPOCH":13302,"BSTAR":-3.7174257e-5,"MEAN_MOTION_DOT":-1.459e-5,"MEAN_MOTION_DDOT":0}]
