LEMUR-2-PETERG          
1 42841U 17042S   26068.48235713  .00023240  00000+0  81076-3 0  9993
2 42841  97.3980 253.6596 0003700 341.6938  18.4169 15.29611459473171
STARLINK-30784          
1 58156U 23166G   26068.68282693 -.00001459  00000+0 -37174-4 0  9995
2 58156  53.1607 219.9577 0000899  89.6522 270.4582 15.30178394133025
